<?xml version="1.0" encoding="UTF-8"?>
<kml xmlns="http://www.opengis.net/kml/2.2">
  <Document>
    <name>Drone Path</name>
    <Style id="pathStyle">
      <LineStyle>
        <color>ff0000ff</color>
        <width>4</width>
      </LineStyle>
    </Style>
    <Placemark>
      <name>Drone Flight</name>
      <styleUrl>#pathStyle</styleUrl>
      <LineString>
        <tessellate>1</tessellate>
        <coordinates>
71.4212219,51.0905745,0
71.4211847,51.0905949,0
71.4211476,51.0906153,0
71.4211115,51.0906133,0
71.4210754,51.0906109,0
71.4210424,51.090601,0
71.4210095,51.0905909,0
71.4209837,51.0905697,0
71.4209583,51.090548,0
71.4209567,51.0905107,0
71.4209713,51.0904373,0
71.420987,51.0904026,0
71.4210266,51.0903905,0
71.4211121,51.0903823,0
71.4211558,51.0903855,0
71.4211972,51.0903948,0
71.4212517,51.0904354,0
71.4210862,51.0905043,0
71.4210906,51.0905026,0
71.4211565,51.0904992,0
71.4212597,51.0905086,0
71.4213054,51.0905818,0
71.42131,51.090623,0
71.4213337,51.0906349,0
71.4213996,51.0906296,0
71.4214637,51.0905944,0
71.4214859,51.0905644,0
71.4214311,51.0905296,0
71.421392,51.0905157,0
71.4213515,51.0905023,0
71.4213248,51.0905187,0
71.4213049,51.0905498,0
71.4212907,51.0905678,0
71.4213138,51.0905226,0
71.4213356,51.0904574,0
71.4213427,51.0904428,0
71.4213589,51.0904527,0
71.4213708,51.0904781,0
71.4214321,51.0905025,0
71.4215022,51.0905419,0
71.4215332,51.0905705,0
71.4215933,51.0906269,0
71.4216679,51.0906471,0
71.4217092,51.0906459,0
71.4217458,51.0906362,0
71.4217841,51.0906133,0
71.4217641,51.0906221,0
71.4216825,51.0906226,0
71.4216406,51.0906175,0
71.4216061,51.0906099,0
71.4215908,51.0905885,0
71.4215992,51.09055,0
71.4216209,51.0905256,0
71.4216601,51.0905197,0
71.4216977,51.0905153,0
71.4217331,51.0905131,0
71.4218461,51.0904804,0
71.4218404,51.0904525,0
71.4218248,51.0904288,0
71.4217923,51.0904121,0
71.4217551,51.0903998,0
71.4217093,51.0903955,0
71.421664,51.0903927,0
71.4216196,51.0903927,0
71.4216,51.0903901,0
71.4216316,51.0903818,0
71.4217164,51.0903776,0
71.4217983,51.0903859,0
71.4218359,51.0903895,0
71.4218749,51.0903871,0
71.4219119,51.0903851,0
71.4219435,51.090384,0
71.4219792,51.0903832,0
71.4220269,51.0903832,0
71.4220727,51.0903819,0
71.4221123,51.0903767,0
71.4221526,51.0903724,0
71.4221956,51.0903715,0
71.4222362,51.0903726,0
71.4222676,51.0903818,0
71.4222917,51.0903976,0
71.4222852,51.0904415,0
71.4222802,51.0904853,0
71.422282,51.0905286,0
71.4222804,51.0906094,0
71.4222738,51.0906393,0
71.4222143,51.0905994,0
71.4221767,51.090575,0
71.4221411,51.0905508,0
71.4221211,51.0905276,0
71.4221065,51.0905071,0
71.4221726,51.0905117,0
71.4222639,51.0905162,0
71.4223993,51.0905279,0
71.4223877,51.0906051,0
71.4224775,51.0906445,0
71.4225184,51.0906448,0
71.4225541,51.0906298,0
71.4225897,51.0906147,0
71.4225848,51.0905713,0
71.422554,51.0905538,0
71.4225223,51.0905365,0
71.4224839,51.0905194,0
71.4224452,51.0905022,0
71.422424,51.0904777,0
71.422404,51.0904526,0
71.4224143,51.0903689,0
71.4224118,51.090391,0
71.4224084,51.0904197,0
71.4224065,51.0904584,0
71.4224049,51.0904983,0
71.422397,51.0905361,0
71.4223879,51.0905798,0
71.4224112,51.0905499,0
71.4224596,51.0904885,0
71.4224791,51.0904644,0
71.4225191,51.0904467,0
71.4225637,51.0904305,0
71.4225971,51.0904056,0
71.4226577,51.0903695,0
71.4226877,51.0903652,0
71.4227281,51.0903632,0
71.4227895,51.0903916,0
71.4227944,51.090471,0
71.4227845,51.0905104,0
71.4227832,51.0905473,0
71.4227853,51.0905832,0
71.4227636,51.090611,0
71.4227324,51.0906355,0
71.4226916,51.0906501,0
71.4226465,51.0906603,0
71.4226782,51.0906533,0
71.4227048,51.0906446,0
71.4227311,51.0906345,0
71.4227745,51.0906327,0
71.4228271,51.0906352,0
71.4228682,51.0906405,0
71.4229028,51.0906474,0
71.4229187,51.0906516,0
71.4228923,51.0906555,0
71.4228478,51.0906611,0
71.4228032,51.0906601,0
71.4227586,51.0906546,0
71.4227135,51.0906576,0
71.4227264,51.0906491,0
71.4227622,51.0906314,0
71.4227762,51.0906056,0
71.4227722,51.0905731,0
71.4227834,51.090501,0
71.4227947,51.0904636,0
71.4228086,51.090426,0
71.4228217,51.0903956,0
71.4228599,51.0903605,0
71.4229002,51.0903602,0
71.4229465,51.0903593,0
71.4229992,51.0903577,0
71.4230461,51.0903555,0
71.4230861,51.0903526,0
71.4231234,51.0903526,0
71.4231573,51.0903562,0
71.4232311,51.0903609,0
71.4232698,51.0903611,0
71.4233091,51.0903591,0
71.4233856,51.0903576,0
71.4234809,51.090354,0
71.423526,51.0903553,0
71.423593,51.0903711,0
71.4236272,51.0903794,0
71.4236398,51.0903964,0
71.4235786,51.0904586,0
71.4235443,51.0904731,0
71.4233864,51.0905104,0
71.4233503,51.0905616,0
71.4233763,51.0906195,0
71.4234021,51.0906424,0
71.4234369,51.0906533,0
71.4235664,51.0906621,0
71.4236353,51.0906558,0
71.423621,51.0906453,0
71.4236004,51.0906374,0
71.4235529,51.0906407,0
71.4234408,51.0906339,0
71.4234073,51.0906148,0
71.4233787,51.0905937,0
71.423379,51.0905604,0
71.4234267,51.0905135,0
71.4234688,51.0904977,0
71.4235115,51.0904818,0
71.4235709,51.0904371,0
71.4235871,51.0904101,0
71.4235734,51.0903898,0
71.4234756,51.0903745,0
71.4233809,51.0903621,0
71.4235247,51.0903944,0
71.4235623,51.090423,0
71.4235635,51.0904551,0
71.4235645,51.0904874,0
71.4235159,51.0905004,0
71.4234663,51.090513,0
71.4234009,51.0905519,0
71.4234145,51.0905864,0
71.4235047,51.0906286,0
71.4235765,51.0906379,0
71.4236689,51.0906428,0
71.4237021,51.0906466,0
71.4237685,51.0906501,0
71.4238484,51.090649,0
71.4239411,51.0906439,0
71.4239879,51.0906374,0
71.4240262,51.0906396,0
71.4240628,51.0906436,0
71.4240357,51.0906534,0
71.4239595,51.0906612,0
71.4239191,51.0906594,0
71.4238786,51.0906561,0
71.4238485,51.0906592,0
71.4238215,51.0906641,0
71.4238321,51.0906567,0
71.4238818,51.0906389,0
71.4239102,51.0906346,0
71.4239587,51.0905838,0
71.4239623,51.0905429,0
71.423963,51.0904531,0
71.4239723,51.09041,0
71.4239654,51.0904,0
71.4239509,51.0904056,0
71.4239506,51.0904316,0
71.42396,51.090509,0
71.4239598,51.0905524,0
71.4239591,51.0905775,0
71.423958,51.090592,0
71.4239791,51.090537,0
71.4239874,51.0904965,0
71.4239924,51.0904538,0
71.4240785,51.0903601,0
71.4241185,51.090355,0
71.4241594,51.0903523,0
71.4241958,51.0903539,0
71.4242283,51.0903593,0
71.4242633,51.0903639,0
71.4243318,51.0903852,0
71.4243635,51.0904432,0
71.4243492,51.09047,0
71.4243231,51.0904908,0
71.4242844,51.0905051,0
71.4242078,51.0905323,0
71.4241883,51.0905598,0
71.4242144,51.0906334,0
71.4242637,51.0906432,0
71.4243087,51.0906482,0
71.4243479,51.0906471,0
71.4243829,51.0906453,0
71.4244117,51.0906427,0
71.4244152,51.0906401,0
71.4243798,51.0906373,0
71.4242682,51.090628,0
71.4242345,51.0906085,0
71.4242183,51.0905841,0
71.4242348,51.0905504,0
71.4242571,51.0905225,0
71.4243346,51.0904496,0
71.4243385,51.0904189,0
71.4243158,51.0903962,0
71.4242896,51.0903788,0
71.4242545,51.0903747,0
71.4242167,51.090371,0
71.4241717,51.0903685,0
71.4241285,51.090369,0
71.4240908,51.0903776,0
71.4240513,51.0903844,0
71.4240063,51.0903856,0
71.4239617,51.0903872,0
71.4239184,51.0903904,0
71.4238444,51.0903975,0
71.4238093,51.0903997,0
71.4237247,51.0903936,0
71.4236924,51.090403,0
71.4236588,51.09041,0
71.4235779,51.090403,0
71.4235379,51.0904062,0
71.4234965,51.0904101,0
71.4234461,51.0904178,0
71.4233976,51.0904246,0
71.4233628,51.0904248,0
71.4233276,51.090425,0
71.4232887,51.0904249,0
71.4232492,51.0904258,0
71.4232051,51.0904364,0
71.423162,51.0904461,0
71.4231314,51.090445,0
71.4230999,51.0904443,0
71.4230549,51.0904491,0
71.4230097,51.090454,0
71.4229614,51.090458,0
71.4229134,51.0904619,0
71.422875,51.0904619,0
71.4228368,51.090462,0
71.4228074,51.0904667,0
71.422778,51.0904713,0
71.422726,51.0904695,0
71.422674,51.0904676,0
71.4226398,51.0904692,0
71.4226059,51.0904709,0
71.4225678,51.0904786,0
71.4225297,51.0904864,0
71.4224376,51.0904879,0
71.4223988,51.0904873,0
71.4223604,51.0904867,0
71.422322,51.0904907,0
71.4222836,51.0904951,0
71.4222386,51.0905028,0
71.422193,51.0905109,0
71.4221533,51.0905079,0
71.4221142,51.0905037,0
71.4220822,51.0905065,0
71.4220512,51.0905101,0
71.4220122,51.090514,0
71.421972,51.0905179,0
71.4219227,51.0905196,0
71.4218718,51.0905208,0
71.4218342,51.0905256,0
71.421799,51.090531,0
71.4217654,51.0905366,0
71.4217322,51.0905423,0
71.4216868,51.0905441,0
71.4216385,51.0905451,0
71.4215985,51.09055,0
71.4215606,51.0905559,0
71.4215241,51.0905602,0
71.4214492,51.090561,0
71.4214095,51.090556,0
71.4213656,51.0905625,0
71.4213205,51.0905728,0
71.4212761,51.0905765,0
71.4212,51.0905885,0
71.421135,51.0906112,0
71.4210517,51.0906143,0
71.4210105,51.0906078,0
71.4209785,51.0905839,0
71.4209509,51.0905515,0
71.4209393,51.0905143,0
71.4209358,51.0904745,0
71.4209523,51.090446,0
71.4210593,51.0903988,0
71.4211254,51.0903868,0
71.4211651,51.0903887,0
71.4212107,51.0903954,0
71.4212433,51.0904599,0
71.421231,51.0904835,0
71.421203,51.0904957,0
71.4211687,51.0905051,0
71.4211295,51.0905121,0
71.4210929,51.0905098,0
71.4211126,51.0905068,0
71.421235,51.0905038,0
71.4212879,51.0905384,0
71.4213003,51.0905669,0
71.4213,51.0906014,0
71.4213467,51.0906244,0
71.4213865,51.0906239,0
71.4214359,51.0906189,0
71.421483,51.0905705,0
71.4214739,51.0905444,0
71.4214338,51.0905259,0
71.4213623,51.0905128,0
71.4213303,51.0905194,0
71.4213014,51.0905386,0
71.4212769,51.0905807,0
71.4212813,51.0905802,0
71.4213019,51.0905403,0
71.4213336,51.0904713,0
71.4213434,51.0904469,0
71.4213457,51.0904378,0
71.4213469,51.0904418,0
71.4213459,51.0904741,0
71.4213607,51.0904992,0
71.4214556,51.0905174,0
71.4214799,51.0905309,0
71.4215063,51.0905502,0
71.4216016,51.0906307,0
71.4216351,51.0906433,0
71.4217174,51.090643,0
71.4217586,51.0906276,0
71.4217876,51.090615,0
71.4217709,51.0906125,0
71.4217504,51.090612,0
71.4217147,51.0906198,0
71.4216788,51.0906239,0
71.4216415,51.0906116,0
71.4216092,51.0905956,0
71.4216015,51.0905304,0
71.421645,51.0905203,0
71.4216881,51.0905113,0
71.4217294,51.0905096,0
71.4217694,51.0905074,0
71.4218004,51.0905011,0
71.4218287,51.0904918,0
71.4218359,51.090426,0
71.4217926,51.0904099,0
71.4216834,51.090385,0
71.4216434,51.0903898,0
71.4216293,51.0903835,0
71.4216903,51.0903796,0
71.4217764,51.0903848,0
71.4218245,51.0903843,0
71.4218976,51.0903803,0
71.4219856,51.0903764,0
71.4220133,51.0903799,0
71.4220405,51.0903836,0
71.4220912,51.0903848,0
71.4221429,51.0903859,0
71.4221801,51.090383,0
71.4222442,51.0903815,0
71.4222712,51.0903836,0
71.4222863,51.0904258,0
71.4222953,51.0905105,0
71.4222804,51.0905893,0
71.4222724,51.0906308,0
71.42222,51.0906169,0
71.4221854,51.0905906,0
71.4221496,51.0905616,0
71.4220815,51.0905072,0
71.4221105,51.090505,0
71.4221531,51.0905082,0
71.422194,51.0905093,0
71.422282,51.0905108,0
71.4223601,51.0905209,0
71.4223829,51.0905324,0
71.4223853,51.090603,0
71.4223966,51.0906283,0
71.4224123,51.0906492,0
71.4224506,51.0906494,0
71.4224971,51.0906422,0
71.4225363,51.0906345,0
71.4225726,51.0906266,0
71.4225921,51.0906045,0
71.4225804,51.0905569,0
71.4225397,51.090541,0
71.4225019,51.0905257,0
71.4224657,51.0905107,0
71.4224333,51.0904903,0
71.4224029,51.090467,0
71.4223926,51.0904319,0
71.4223934,51.09039,0
71.4223965,51.0903915,0
71.4224008,51.0904186,0
71.4224027,51.0904499,0
71.4224031,51.090484,0
71.4223995,51.0905213,0
71.4223932,51.0905609,0
71.4223957,51.0905822,0
71.4224045,51.0905905,0
71.4224111,51.0905699,0
71.422416,51.0905272,0
71.4224404,51.0904954,0
71.4224804,51.0904724,0
71.4225174,51.0904533,0
71.4225518,51.0904375,0
71.4226465,51.0903692,0
71.4226832,51.0903645,0
71.4227191,51.0903632,0
71.4227542,51.0903655,0
71.422779,51.0903839,0
71.4227928,51.0904199,0
71.4228005,51.0904551,0
71.422801,51.0904895,0
71.4227946,51.0905707,0
71.4227771,51.0906067,0
71.4226661,51.09065,0
71.4226483,51.090651,0
71.4226636,51.0906527,0
71.4226883,51.090652,0
71.4227278,51.0906473,0
71.4227654,51.0906444,0
71.4228382,51.0906451,0
71.4228831,51.090648,0
71.4229144,51.0906501,0
71.4229099,51.0906523,0
71.4228703,51.0906566,0
71.422831,51.0906589,0
71.422792,51.0906567,0
71.4227359,51.0906571,0
71.4227295,51.0906549,0
71.422787,51.0906254,0
71.4227842,51.090587,0
71.4227837,51.0905479,0
71.4227903,51.0905067,0
71.4227923,51.0904285,0
71.4227956,51.0903962,0
71.4228189,51.0903826,0
71.4228476,51.0903694,0
71.4229442,51.0903503,0
71.4229852,51.0903568,0
71.4230249,51.0903621,0
71.4230582,51.0903625,0
71.4230933,51.0903626,0
71.4231815,51.0903602,0
71.4232219,51.0903575,0
71.4232982,51.0903585,0
71.4233355,51.0903608,0
71.4233791,51.09036,0
71.4234217,51.090359,0
71.423456,51.0903561,0
71.4234909,51.0903535,0
71.4235321,51.0903538,0
71.4235724,51.0903555,0
71.4236015,51.0903752,0
71.4236285,51.0903952,0
71.4236137,51.0904479,0
71.4235259,51.0904755,0
71.4234947,51.090488,0
71.4234184,51.0905087,0
71.4233735,51.0905169,0
71.4233622,51.0906105,0
71.423392,51.0906411,0
71.4234786,51.090651,0
71.4235215,51.0906539,0
71.4235644,51.0906568,0
71.4236002,51.09066,0
71.4236356,51.0906633,0
71.4236221,51.0906591,0
71.4236045,51.0906543,0
71.4235661,51.0906515,0
71.4234852,51.0906463,0
71.4234074,51.0906234,0
71.4233702,51.0906009,0
71.4233976,51.0905473,0
71.4234325,51.0905249,0
71.4234705,51.0905032,0
71.4235341,51.0904731,0
71.4235901,51.0904327,0
71.423576,51.0904059,0
71.4235516,51.0903776,0
71.4234964,51.0903761,0
71.4234525,51.0903725,0
71.4234041,51.0903671,0
71.4234124,51.0903707,0
71.4234387,51.0903773,0
71.4235131,51.0903809,0
71.423545,51.0903897,0
71.4235742,51.0904013,0
71.4235767,51.0904316,0
71.42349,51.0905128,0
71.4234335,51.0905468,0
71.4234192,51.0905753,0
71.4234102,51.0906096,0
71.4234319,51.0906267,0
71.4234698,51.0906348,0
71.4235681,51.0906305,0
71.4236479,51.0906347,0
71.4237566,51.0906519,0
71.4238058,51.0906487,0
71.423851,51.0906457,0
71.4238933,51.0906428,0
71.4239637,51.0906483,0
71.4239996,51.0906499,0
71.4240378,51.0906494,0
71.4240603,51.0906469,0
71.4240362,51.0906483,0
71.4239462,51.0906565,0
71.4239144,51.0906601,0
71.4238771,51.0906602,0
71.4238343,51.0906568,0
71.4238229,51.0906534,0
71.4238462,51.0906503,0
71.4238773,51.0906454,0
71.4239173,51.0906386,0
71.4239458,51.0906224,0
71.4239598,51.0905945,0
71.4239646,51.0905582,0
71.4239572,51.0905107,0
71.4239571,51.0904336,0
71.4239652,51.0904018,0
71.4239728,51.0904533,0
71.4239693,51.0904933,0
71.4239538,51.0905321,0
71.4239474,51.0905658,0
71.4239649,51.0905938,0
71.4239675,51.0905549,0
71.4239697,51.090515,0
71.4239709,51.0904727,0
71.4239766,51.0904338,0
71.4240474,51.0903678,0
71.4240852,51.0903619,0
71.4241764,51.0903676,0
71.4242126,51.090365,0
71.4242485,51.0903646,0
71.424284,51.0903702,0
71.4243195,51.0903807,0
71.4243556,51.090407,0
71.4243799,51.0904336,0
71.424363,51.0904612,0
71.4243409,51.0904862,0
71.4242987,51.0905015,0
71.4242584,51.0905169,0
71.4242258,51.0905321,0
71.4241987,51.0905506,0
71.4241973,51.0905845,0
71.424246,51.0906309,0
71.4242871,51.090644,0
71.424317,51.0906433,0
71.424349,51.0906422,0
71.4243947,51.0906382,0
71.4244319,51.0906345,0
71.4244038,51.0906335,0
71.4243742,51.0906327,0
71.4243316,51.0906341,0
71.4242895,51.090634,0
71.4242185,51.0906001,0
71.4242528,51.090535,0
71.4242796,51.0905122,0
71.4243064,51.0904893,0
71.4243542,51.0904402,0
71.4243251,51.090406,0
71.4242621,51.0903687,0
71.4242282,51.0903654,0
71.4241368,51.0903634,0
71.4240702,51.0903761,0
71.4239454,51.0903884,0
71.423905,51.0903894,0
71.4238212,51.0903937,0
71.4237817,51.0903977,0
71.4237098,51.0904022,0
71.4236777,51.0904021,0
71.4236279,51.0904016,0
71.4235438,51.0904049,0
71.4235146,51.0904094,0
71.4234354,51.0904121,0
71.4233965,51.0904174,0
71.4233579,51.0904234,0
71.4232297,51.0904352,0
71.4231855,51.0904437,0
71.4231427,51.0904425,0
71.4230591,51.0904393,0
71.4229796,51.0904486,0
71.4229415,51.0904583,0
71.4228197,51.0904585,0
71.4227719,51.0904658,0
71.4227314,51.0904707,0
71.4226937,51.0904749,0
71.4226605,51.0904775,0
71.4226292,51.0904795,0
71.4225906,51.0904824,0
71.422504,51.0904889,0
71.422458,51.0904922,0
71.422414,51.0904909,0
71.4223711,51.0904875,0
71.4223303,51.0904909,0
71.4222518,51.0905004,0
71.4222138,51.0904999,0
71.4221397,51.0905153,0
71.422099,51.0905179,0
71.4220185,51.0905181,0
71.4219856,51.090523,0
71.421946,51.0905238,0
71.4218567,51.0905261,0
71.4218113,51.0905365,0
71.4217733,51.0905409,0
71.4216992,51.090542,0
71.4216479,51.0905458,0
71.4216069,51.0905498,0
71.4215756,51.090554,0
71.4215416,51.0905565,0
71.421505,51.0905573,0
71.421413,51.0905616,0
71.421372,51.0905646,0
71.4212992,51.0905702,0
71.421247,51.0905707,0
71.4212072,51.0905793,0
71.4211528,51.0906108,0
71.4210761,51.0906134,0
71.421036,51.0906024,0
71.4209972,51.090587,0
71.4209602,51.0905647,0
71.42094,51.0905354,0
71.4209469,51.0904949,0
71.4209578,51.0904568,0
71.4209755,51.0904227,0
71.421046,51.090395,0
71.4211669,51.0903819,0
71.4212084,51.0903891,0
71.4212532,51.0904745,0
71.4212131,51.0904928,0
71.4211322,51.0905061,0
71.4211004,51.0905055,0
71.4210965,51.0905016,0
71.4211699,51.0905009,0
71.421215,51.0905042,0
71.4212818,51.0905265,0
71.4213017,51.0905466,0
71.4212977,51.0905817,0
71.4213367,51.090623,0
71.421372,51.0906313,0
71.4214062,51.0906284,0
71.4214712,51.0905892,0
71.4214584,51.0905386,0
71.4214222,51.0905195,0
71.4213068,51.0905289,0
71.4212842,51.0905534,0
71.4212865,51.0905808,0
71.4212893,51.0906028,0
71.4213072,51.0905255,0
71.4213251,51.0904879,0
71.4213432,51.0904329,0
71.4213445,51.0904167,0
71.4213521,51.090455,0
71.4213603,51.0904927,0
71.4213926,51.0905038,0
71.421425,51.0905149,0
71.4214713,51.0905285,0
71.4215176,51.0905421,0
71.4215459,51.0906068,0
71.4216275,51.0906451,0
71.4216625,51.0906464,0
71.4216972,51.090647,0
71.4217715,51.0906271,0
71.4217527,51.0906242,0
71.4217208,51.0906229,0
71.4216871,51.0906215,0
71.4216043,51.0905817,0
71.421627,51.0905374,0
71.4216572,51.0905276,0
71.4217537,51.0905188,0
71.4217953,51.0905105,0
71.4218534,51.090435,0
71.4217845,51.0904045,0
71.4217431,51.0903987,0
71.421701,51.0903948,0
71.4216139,51.090384,0
71.421625,51.0903778,0
71.4216526,51.0903715,0
71.4217205,51.0903728,0
71.4217596,51.0903776,0
71.4218003,51.0903834,0
71.4218882,51.0903813,0
71.4219615,51.0903868,0
71.4220001,51.0903824,0
71.4220402,51.0903745,0
71.4220754,51.0903744,0
71.4221084,51.0903781,0
71.4221476,51.0903767,0
71.4222311,51.0903743,0
71.4222718,51.0903789,0
71.422284,51.0904077,0
71.4222798,51.0904505,0
71.4222814,51.090537,0
71.4222856,51.0905749,0
71.4222912,51.0906094,0
71.4222712,51.0906196,0
71.4222331,51.0906128,0
71.4221306,51.0905526,0
71.4221054,51.0905154,0
71.4221514,51.090515,0
71.4221904,51.0905153,0
71.4222233,51.0905162,0
71.4223018,51.0905176,0
71.4223792,51.0905283,0
71.4224068,51.0905825,0
71.4224107,51.0906135,0
71.4224129,51.0906408,0
71.4224671,51.0906484,0
71.4225056,51.0906413,0
71.4225467,51.0906316,0
71.4225771,51.0906153,0
71.4225866,51.0905677,0
71.4225479,51.0905489,0
71.4225079,51.0905333,0
71.4224659,51.0905223,0
71.4224018,51.0904785,0
71.4224012,51.090406,0
71.4224095,51.0903876,0
71.4224103,51.0904108,0
71.4224086,51.0904376,0
71.4224023,51.0904718,0
71.4223953,51.0905087,0
71.422387,51.0905515,0
71.4223894,51.0905893,0
71.4224,51.0905823,0
71.4224663,51.0904795,0
71.4224942,51.0904555,0
71.4225349,51.0904401,0
71.4225725,51.0904228,0
71.4226007,51.0903994,0
71.4226317,51.0903801,0
71.4226722,51.0903743,0
71.422738,51.0903661,0
71.4227624,51.0903712,0
71.4227724,51.0904084,0
71.4227813,51.0904451,0
71.4227893,51.0905154,0
71.4227745,51.090602,0
71.4227471,51.090624,0
71.4226919,51.0906503,0
71.4226668,51.0906557,0
71.4226608,51.0906535,0
71.422701,51.0906402,0
71.422742,51.0906314,0
71.4227825,51.0906371,0
71.422823,51.0906424,0
71.4228634,51.0906429,0
71.4229023,51.0906439,0
71.4229358,51.0906563,0
71.4228957,51.0906577,0
71.4228552,51.0906591,0
71.4228055,51.0906595,0
71.4227229,51.0906537,0
71.4227704,51.0906348,0
71.4227753,51.0906017,0
71.4227798,51.0905682,0
71.4227961,51.0904922,0
71.4228145,51.0903886,0
71.4228302,51.0903678,0
71.4228783,51.0903648,0
71.4229288,51.0903631,0
71.4229675,51.0903589,0
71.4230052,51.0903544,0
71.4230486,51.0903548,0
71.4230928,51.0903556,0
71.4231253,51.0903584,0
71.4231952,51.0903574,0
71.4232351,51.0903524,0
71.4232797,51.0903547,0
71.4233681,51.0903602,0
71.4234106,51.0903618,0
71.4234441,51.0903634,0
71.4234756,51.0903649,0
71.4235151,51.0903606,0
71.4235895,51.0903688,0
71.4236192,51.0904168,0
71.4236087,51.0904487,0
71.4235834,51.0904619,0
71.4235534,51.0904693,0
71.423517,51.0904807,0
71.4234784,51.0904935,0
71.4233901,51.0905111,0
71.4233605,51.0905359,0
71.4233368,51.0905671,0
71.4233464,51.0905946,0
71.4233699,51.0906206,0
71.4234562,51.09065,0
71.4235466,51.0906585,0
71.4236063,51.0906641,0
71.4236177,51.0906602,0
71.4235942,51.0906465,0
71.4235503,51.090641,0
71.4235051,51.090639,0
71.4234179,51.0906307,0
71.4233796,51.0906164,0
71.423391,51.0905563,0
71.4234154,51.0905332,0
71.4234452,51.0905183,0
71.4235399,51.0904568,0
71.4235701,51.0904358,0
71.4235797,51.0904121,0
71.4235707,51.090386,0
71.4235446,51.0903721,0
71.4234635,51.0903675,0
71.4234291,51.090365,0
71.4234128,51.090366,0
71.4234162,51.0903708,0
71.4234364,51.0903764,0
71.423476,51.090383,0
71.4235124,51.0903914,0
71.4235625,51.0904231,0
71.4235605,51.0904578,0
71.4235458,51.0904859,0
71.4235137,51.0905049,0
71.4234772,51.0905226,0
71.4234083,51.0905617,0
71.4234233,51.0906217,0
71.4234579,51.0906307,0
71.4234965,51.0906362,0
71.4235425,51.0906351,0
71.4235857,51.0906348,0
71.4236614,51.0906381,0
71.4236977,51.0906422,0
71.423735,51.0906451,0
71.4237746,51.0906456,0
71.423815,51.0906449,0
71.4238572,51.0906414,0
71.4239006,51.0906389,0
71.4239469,51.0906386,0
71.4240361,51.0906436,0
71.4240652,51.0906481,0
71.4240346,51.0906569,0
71.4240047,51.0906551,0
71.423971,51.0906545,0
71.4239245,51.0906579,0
71.4238805,51.0906597,0
71.4238198,51.0906526,0
71.4238379,51.0906502,0
71.4238886,51.0906396,0
71.4239329,51.0906259,0
71.4239557,51.0905665,0
71.4239631,51.0905262,0
71.4239677,51.0904506,0
71.4239665,51.0904176,0
71.4239687,51.0903988,0
71.4239698,51.0904373,0
71.4239702,51.0904762,0
71.4239635,51.0905195,0
71.4239588,51.0905892,0
71.4239663,51.0905727,0
71.4239723,51.0905325,0
71.4239853,51.0904863,0
71.4239956,51.0904018,0
71.4239942,51.0903641,0
71.4240364,51.0903646,0
71.4240786,51.0903651,0
71.4241135,51.0903596,0
71.4241484,51.090354,0
71.4241886,51.0903558,0
71.4242771,51.090361,0
71.4243255,51.0903644,0
71.4243526,51.0903874,0
71.4243787,51.0904112,0
71.4243704,51.0904475,0
71.42436,51.0904845,0
71.4243283,51.0905021,0
71.4242949,51.0905181,0
71.4242238,51.0905437,0
71.4242164,51.0905731,0
71.4242378,51.0906284,0
71.4242672,51.0906515,0
71.4243073,51.090649,0
71.424349,51.0906427,0
71.4244232,51.0906461,0
71.4244125,51.0906434,0
71.4243924,51.0906398,0
71.4243471,51.0906407,0
71.4242962,51.0906427,0
71.4242641,51.0906263,0
71.4242364,51.0906056,0
71.4242353,51.0905482,0
71.4242639,51.0905274,0
71.4243,51.0905093,0
71.4243211,51.0904787,0
71.4243339,51.0904147,0
71.4243235,51.0903867,0
71.424285,51.0903728,0
71.424236,51.0903642,0
71.4241924,51.0903622,0
71.4241508,51.0903629,0
71.424118,51.090369,0
71.4240888,51.0903774,0
71.4239992,51.0903802,0
71.4238353,51.090396,0
71.4237923,51.0903962,0
71.4237522,51.0903952,0
71.4237187,51.0903965,0
71.4236508,51.0904057,0
71.4234794,51.0904181,0
71.4234058,51.0904279,0
71.4233691,51.0904303,0
71.4233296,51.0904329,0
71.4232879,51.0904355,0
71.4232424,51.0904355,0
71.4231938,51.0904332,0
71.4231513,51.0904349,0
71.4230329,51.0904529,0
71.4229607,51.0904559,0
71.4229231,51.0904567,0
71.4228818,51.0904588,0
71.4228381,51.0904615,0
71.4227918,51.0904651,0
71.422685,51.0904759,0
71.4226346,51.0904789,0
71.4225911,51.0904815,0
71.4225575,51.0904835,0
71.4225179,51.090484,0
71.4224694,51.0904823,0
71.4224247,51.0904838,0
71.4223862,51.0904905,0
71.4223508,51.0904957,0
71.4223206,51.0904984,0
71.422287,51.0905001,0
71.4222473,51.0905001,0
71.4221631,51.0905075,0
71.4221214,51.0905115,0
71.4220832,51.0905123,0
71.4220443,51.090513,0
71.4220042,51.0905133,0
71.4219109,51.0905213,0
71.4218239,51.090531,0
71.4217495,51.0905413,0
71.4217143,51.0905465,0
71.4216807,51.0905501,0
71.4216018,51.0905563,0
71.4215593,51.0905587,0
71.4214771,51.0905597,0
71.4214317,51.0905568,0
71.4213879,51.0905556,0
71.4213507,51.0905619,0
71.4212786,51.0905689,0
71.4212438,51.0905729,0
71.4212116,51.09059,0
71.4211771,51.0906047,0
71.421129,51.0906061,0
71.4210817,51.0906075,0
71.4210402,51.0906092,0
71.4209692,51.0905845,0
71.4209413,51.0905593,0
71.4209393,51.0905175,0
71.4209397,51.0904765,0
71.4209656,51.0904433,0
71.4209915,51.0904119,0
71.4210177,51.0904026,0
71.4210449,51.0903939,0
71.4210875,51.0903925,0
71.4211304,51.0903914,0
71.4211808,51.0903982,0
71.42123,51.0904056,0
71.4212368,51.090433,0
71.4212433,51.0904603,0
71.4212223,51.0904809,0
71.4212013,51.0905015,0
71.4211608,51.0905078,0
71.4211203,51.0905141,0
71.4210735,51.0905006,0
71.4211105,51.0905003,0
71.4211914,51.0905071,0
71.4212724,51.0905269,0
71.4213044,51.0905781,0
71.4213646,51.0906231,0
71.4213964,51.0906208,0
71.4214275,51.0906183,0
71.4214545,51.0905925,0
71.4214571,51.0905404,0
71.4213923,51.0905081,0
71.4213593,51.0905003,0
71.4213357,51.0905172,0
71.4213141,51.0905392,0
71.4213018,51.0905667,0
71.4212992,51.0905729,0
71.4213112,51.090538,0
71.4213229,51.0905002,0
71.4213449,51.0904411,0
71.4213549,51.0904257,0
71.421337,51.0904741,0
71.4213633,51.09049,0
71.4214027,51.0905011,0
71.4214402,51.0905161,0
71.4214768,51.0905325,0
71.4215148,51.0905609,0
71.4215533,51.0905943,0
71.4215881,51.0906154,0
71.4216583,51.0906352,0
71.4216969,51.0906337,0
71.4217363,51.090632,0
71.4217759,51.0906301,0
71.4217627,51.0906198,0
71.4217318,51.0906196,0
71.4216539,51.09062,0
71.4216072,51.0905383,0
71.4216404,51.0905284,0
71.4217773,51.0905068,0
71.4218073,51.0905106,0
71.4218358,51.0904577,0
71.4218214,51.0904326,0
71.4217859,51.0904165,0
71.4217525,51.0904043,0
71.421721,51.0903956,0
71.4216831,51.0903928,0
71.4216212,51.0903894,0
71.4216589,51.0903662,0
71.4217047,51.0903692,0
71.4217734,51.0903852,0
71.4218085,51.090392,0
71.42185,51.0903951,0
71.4218924,51.0903948,0
71.421936,51.0903901,0
71.4219795,51.0903849,0
71.4220632,51.090377,0
71.4221367,51.0903824,0
71.4221761,51.0903817,0
71.4222166,51.0903831,0
71.422259,51.090388,0
71.4222853,51.0904038,0
71.4222823,51.0904773,0
71.4222888,51.0905207,0
71.4222891,51.0905604,0
71.4222324,51.0906104,0
71.4222023,51.0906027,0
71.4221654,51.0905844,0
71.422113,51.0905401,0
71.4221344,51.0905146,0
71.4222095,51.090507,0
71.4222915,51.0905134,0
71.4223311,51.0905178,0
71.4223701,51.0905137,0
71.4224,51.090519,0
71.4223951,51.0905601,0
71.4223921,51.0905993,0
71.4224083,51.0906558,0
71.4224492,51.0906546,0
71.4225368,51.0906423,0
71.4225786,51.090629,0
71.4226057,51.0905638,0
71.4225635,51.0905517,0
71.4225227,51.0905392,0
71.4224631,51.0905072,0
71.4223988,51.0904698,0
71.4224031,51.0904302,0
71.4224127,51.0904055,0
71.4224174,51.0904183,0
71.4224052,51.0905759,0
71.4224056,51.0905871,0
71.4224061,51.0905978,0
71.4224185,51.0905653,0
71.4224309,51.0905328,0
71.4224737,51.0904745,0
71.4225133,51.0904564,0
71.4225838,51.0904112,0
71.4226454,51.090376,0
71.4227164,51.0903664,0
71.4227564,51.0903638,0
71.4227726,51.090388,0
71.422793,51.0904575,0
71.4227985,51.0905021,0
71.4227873,51.0905456,0
71.422774,51.0905889,0
71.4227491,51.0906365,0
71.4226674,51.0906609,0
71.4226569,51.0906554,0
71.4226524,51.0906467,0
71.4226821,51.090641,0
71.4227189,51.0906359,0
71.4227607,51.0906376,0
71.4228037,51.0906409,0
71.4228482,51.090645,0
71.4228931,51.0906492,0
71.4229142,51.090651,0
71.4229289,51.090652,0
71.4229009,51.0906578,0
71.4228602,51.0906649,0
71.4228166,51.0906644,0
71.4227721,51.0906614,0
71.4227326,51.0906619,0
71.4226947,51.0906635,0
71.4227632,51.0906455,0
71.4227753,51.090616,0
71.4227736,51.090579,0
71.4227844,51.090462,0
71.4227912,51.090422,0
71.4228046,51.0903948,0
71.4228214,51.0903741,0
71.4229045,51.0903563,0
71.4229479,51.0903554,0
71.4230236,51.0903581,0
71.4230534,51.0903573,0
71.4231345,51.0903589,0
71.4231774,51.0903566,0
71.4232203,51.0903518,0
71.4232602,51.0903515,0
71.423298,51.0903545,0
71.4233399,51.0903582,0
71.4233849,51.0903624,0
71.4234277,51.0903625,0
71.4234688,51.0903591,0
71.4235107,51.0903564,0
71.4235534,51.0903541,0
71.4235865,51.090359,0
71.4236106,51.0903706,0
71.4236203,51.0903943,0
71.4236156,51.0904301,0
71.4235607,51.0904723,0
71.4235209,51.0904822,0
71.4234761,51.0904852,0
71.4234084,51.0905076,0
71.4233805,51.0905267,0
71.423355,51.0905521,0
71.4233502,51.0905817,0
71.4233734,51.0906172,0
71.423432,51.0906456,0
71.423518,51.0906571,0
71.4235647,51.0906594,0
71.4236342,51.0906535,0
71.4236228,51.0906526,0
71.423569,51.0906415,0
71.4235296,51.0906381,0
71.4234801,51.0906433,0
71.4234375,51.0906398,0
71.4233879,51.0905934,0
71.4234751,51.0905007,0
71.4235083,51.0904881,0
71.4235406,51.0904726,0
71.4235911,51.0904251,0
71.423583,51.0903995,0
71.4235652,51.0903791,0
71.4234688,51.0903746,0
71.4234206,51.0903725,0
71.4234329,51.090371,0
71.4234666,51.090383,0
71.4235414,51.0903978,0
71.4235742,51.0904076,0
71.4235579,51.0904858,0
71.4235226,51.0905005,0
71.4234871,51.0905153,0
71.4234498,51.0905303,0
71.4234071,51.0905751,0
71.4234031,51.0906024,0
71.4234408,51.0906208,0
71.4234786,51.0906379,0
71.423601,51.0906387,0
71.4236449,51.0906347,0
71.423773,51.0906416,0
71.4238188,51.0906429,0
71.4238514,51.0906438,0
71.423884,51.0906448,0
71.4239296,51.0906475,0
71.4239751,51.0906503,0
71.4240164,51.0906514,0
71.4240577,51.0906525,0
71.4240578,51.0906527,0
71.424057,51.0906529,0
71.4240234,51.0906562,0
71.4238955,51.090664,0
71.4238536,51.0906601,0
71.4238121,51.0906558,0
71.4238653,51.0906505,0
71.4238987,51.0906441,0
71.4239223,51.0906128,0
71.4239448,51.0905783,0
71.4239538,51.0905396,0
71.4239609,51.0905003,0
71.4239692,51.0904598,0
71.4239776,51.0904191,0
71.4239659,51.0904063,0
71.4239504,51.0903988,0
71.4239476,51.0904288,0
71.4239487,51.090507,0
71.4239502,51.0905481,0
71.4239577,51.0905776,0
71.4239666,51.0906042,0
71.4239696,51.0905777,0
71.423971,51.0905363,0
71.4239807,51.0905011,0
71.4239928,51.0904677,0
71.4239966,51.0904264,0
71.4239977,51.0903823,0
71.4240492,51.0903666,0
71.4240864,51.0903649,0
71.4241266,51.0903636,0
71.4242294,51.0903618,0
71.4242665,51.0903615,0
71.424325,51.0903769,0
71.4243534,51.0903997,0
71.4243622,51.0904292,0
71.4243611,51.0904621,0
71.4243322,51.0904829,0
71.4242882,51.0904971,0
71.4242485,51.0905123,0
71.4242111,51.0905281,0
71.4241956,51.0905568,0
71.4241936,51.0905935,0
71.4242113,51.0906216,0
71.4242807,51.0906518,0
71.4243246,51.0906493,0
71.4243687,51.090648,0
71.4244129,51.0906475,0
71.4244218,51.0906469,0
71.4244028,51.0906464,0
71.4243722,51.0906436,0
71.4242934,51.0906273,0
71.4242562,51.0906096,0
71.4242363,51.0905849,0
71.4242328,51.0905535,0
71.42425,51.0905274,0
71.4242881,51.0905066,0
71.4243181,51.0904856,0
71.4243394,51.0904643,0
71.4243163,51.090392,0
71.4242862,51.0903688,0
71.4242482,51.0903678,0
71.42421,51.0903685,0
71.4241718,51.0903713,0
71.424137,51.0903745,0
71.4240688,51.0903799,0
71.4240189,51.0903785,0
71.4239713,51.0903796,0
71.4239273,51.0903847,0
71.4238863,51.0903899,0
71.42385,51.0903955,0
71.4238128,51.0903977,0
71.423774,51.0903938,0
71.4237376,51.0903944,0
71.4237057,51.090403,0
71.4236698,51.0904079,0
71.4235841,51.0904054,0
71.4234686,51.0904148,0
71.4234264,51.0904171,0
71.4233378,51.0904324,0
71.4233038,51.0904293,0
71.4232664,51.0904271,0
71.423219,51.0904278,0
71.4231357,51.0904333,0
71.4230972,51.0904374,0
71.4230573,51.0904421,0
71.4230185,51.090446,0
71.4229837,51.090447,0
71.4229458,51.0904487,0
71.4228484,51.0904592,0
71.4227857,51.0904736,0
71.4226499,51.0904735,0
71.422607,51.0904759,0
71.4225677,51.0904827,0
71.4224943,51.0904838,0
71.4224229,51.0904924,0
71.4223849,51.0905027,0
71.4223344,51.0905043,0
71.422285,51.0905055,0
71.4222502,51.0905014,0
71.4222148,51.0904981,0
71.4221261,51.0905143,0
71.4219701,51.0905303,0
71.4219366,51.0905318,0
71.421853,51.090535,0
71.4218028,51.0905367,0
71.4217606,51.0905413,0
71.4217184,51.0905459,0
71.4216444,51.0905447,0
71.4216128,51.0905503,0
71.4215815,51.0905561,0
71.4215367,51.0905559,0
71.4214911,51.0905554,0
71.4214459,51.0905554,0
71.4214008,51.0905554,0
71.4213634,51.0905621,0
71.4213267,51.0905696,0
71.4212836,51.0905738,0
71.4212399,51.0905776,0
71.4212051,51.0905951,0
71.4211715,51.0906144,0
71.4211312,51.0906132,0
71.4210899,51.090609,0
71.4210309,51.0906038,0
71.4209979,51.090584,0
71.4209641,51.090561,0
71.4209546,51.0905269,0
71.4209504,51.0904904,0
71.4209649,51.0904538,0
71.4210148,51.0904009,0
71.4210908,51.0903867,0
71.421167,51.0903896,0
71.4211956,51.0903958,0
71.4212425,51.0904551,0
71.421212,51.0904894,0
71.4211696,51.0904974,0
71.4211189,51.0905028,0
71.4210764,51.0905009,0
71.4210963,51.0904979,0
71.421173,51.0904992,0
71.4212155,51.0905078,0
71.4212532,51.0905166,0
71.4212976,51.0905524,0
71.4213501,51.0906294,0
71.421388,51.0906329,0
71.4214267,51.0906284,0
71.4214586,51.0906117,0
71.421486,51.0905867,0
71.4214547,51.0905395,0
71.4213798,51.0905095,0
71.4213187,51.0905256,0
71.421298,51.0905539,0
71.4212835,51.0905945,0
71.4212865,51.090592,0
71.4213056,51.0905504,0
71.4213187,51.0905134,0
71.4213262,51.0904807,0
71.4213364,51.0904499,0
71.4213495,51.0904208,0
71.421354,51.0904246,0
71.4213626,51.0904925,0
71.4214339,51.090521,0
71.4214738,51.0905328,0
71.4215369,51.0905823,0
71.4215661,51.0906081,0
71.4215968,51.0906281,0
71.4216349,51.0906387,0
71.4216836,51.0906353,0
71.4217255,51.0906328,0
71.4217566,51.0906315,0
71.4217776,51.0906267,0
71.4217816,51.090616,0
71.4217291,51.0906206,0
71.4216885,51.0906245,0
71.4216152,51.0906071,0
71.4215998,51.0905792,0
71.4215989,51.0905538,0
71.4216301,51.0905334,0
71.4216675,51.0905174,0
71.4217672,51.0905063,0
71.4218034,51.090502,0
71.4218464,51.0904402,0
71.4218109,51.0904136,0
71.4217728,51.090393,0
71.4217266,51.0903913,0
71.4216822,51.0903907,0
71.421644,51.0903942,0
71.4216154,51.0903938,0
71.4216376,51.0903675,0
71.4216848,51.0903698,0
71.4217608,51.0903826,0
71.4218343,51.0903921,0
71.4218746,51.0903921,0
71.4219523,51.0903774,0
71.4220339,51.0903803,0
71.4221182,51.0903706,0
71.4221657,51.0903707,0
71.4222124,51.0903713,0
71.4222518,51.0903774,0
71.4222898,51.0904244,0
71.4222913,51.0904627,0
71.4222934,51.0904964,0
71.4222952,51.0905305,0
71.4222922,51.0905749,0
71.4222637,51.0906182,0
71.4222385,51.0906182,0
71.4221969,51.0905976,0
        </coordinates>
      </LineString>
    </Placemark>
  </Document>
</kml>